{
    "links": {
        "self": "http://www.neowsapp.com/rest/v1/neo/3785779?api_key=iIulBulltgU6a56xZRHN4H3l9WmuAYTsLGpBGhQ2"
    },
    "id": "3785779",
    "neo_reference_id": "3785779",
    "name": "(2017 TM4)",
    "designation": "2017 TM4",
    "nasa_jpl_url": "http://ssd.jpl.nasa.gov/sbdb.cgi?sstr=3785779",
    "absolute_magnitude_h": 27.7,
    "estimated_diameter": {
        "kilometers": {
            "estimated_diameter_min": 0.0076657557,
            "estimated_diameter_max": 0.0171411509
        },
        "meters": {
            "estimated_diameter_min": 7.6657557353,
            "estimated_diameter_max": 17.1411509231
        },
        "miles": {
            "estimated_diameter_min": 0.0047632783,
            "estimated_diameter_max": 0.0106510141
        },
        "feet": {
            "estimated_diameter_min": 25.1501180466,
            "estimated_diameter_max": 56.2373735944
        }
    },
    "is_potentially_hazardous_asteroid": false,
    "close_approach_data": [
        {
            "close_approach_date": "2017-10-06",
            "close_approach_date_full": "2017-Oct-06 16:10",
            "epoch_date_close_approach": 1507306200000,
            "relative_velocity": {
                "kilometers_per_second": "8.1308232686",
                "kilometers_per_hour": "29270.9637669358",
                "miles_per_hour": "18187.8385695163"
            },
            "miss_distance": {
                "astronomical": "0.0049388121",
                "lunar": "1.9211979069",
                "kilometers": "738835.770490227",
                "miles": "459091.2594380526"
            },
            "orbiting_body": "Earth"
        },
        {
            "close_approach_date": "2017-10-07",
            "close_approach_date_full": "2017-Oct-07 00:43",
            "epoch_date_close_approach": 1507336980000,
            "relative_velocity": {
                "kilometers_per_second": "7.8098107624",
                "kilometers_per_hour": "28115.3187446264",
                "miles_per_hour": "17469.7656944041"
            },
            "miss_distance": {
                "astronomical": "0.0047405662",
                "lunar": "1.8440802518",
                "kilometers": "709178.606113994",
                "miles": "440663.1520173572"
            },
            "orbiting_body": "Moon"
        },
        {
            "close_approach_date": "2055-06-30",
            "close_approach_date_full": "2055-Jun-30 08:20",
            "epoch_date_close_approach": 2697956400000,
            "relative_velocity": {
                "kilometers_per_second": "19.4435437595",
                "kilometers_per_hour": "69996.7575342472",
                "miles_per_hour": "43493.2630356549"
            },
            "miss_distance": {
                "astronomical": "0.3932619141",
                "lunar": "152.9788845849",
                "kilometers": "58831144.701482967",
                "miles": "36555978.1942682646"
            },
            "orbiting_body": "Earth"
        }
    ],
    "orbital_data": {
        "orbit_id": "3",
        "orbit_determination_date": "2017-10-20 06:22:18",
        "first_observation_date": "2017-10-11",
        "last_observation_date": "2017-10-19",
        "data_arc_in_days": 8,
        "observations_used": 35,
        "orbit_uncertainty": "7",
        "minimum_orbit_intersection": ".00156349",
        "jupiter_tisserand_invariant": "4.078",
        "epoch_osculation": "2459000.5",
        "eccentricity": ".4346474049110794",
        "semi_major_axis": "1.707010323885872",
        "inclination": "3.399151716680028",
        "ascending_node_longitude": "10.50047145982917",
        "orbital_period": "814.6154608256589",
        "perihelion_distance": ".9650627164524568",
        "perihelion_argument": "334.0765602091945",
        "aphelion_distance": "2.448957931319288",
        "perihelion_time": "2458824.146599893709",
        "mean_anomaly": "77.93520635358026",
        "mean_motion": ".4419263042652291",
        "equinox": "J2000",
        "orbit_class": {
            "orbit_class_type": "APO",
            "orbit_class_description": "Near-Earth asteroid orbits which cross the Earth’s orbit similar to that of 1862 Apollo",
            "orbit_class_range": "a (semi-major axis) > 1.0 AU; q (perihelion) < 1.017 AU"
        }
    },
    "is_sentry_object": false
}